ONEWEB-0607             
1 54671U 22166AF  25289.91350111 -.00000323  00000+0 -81542-3 0  9999
2 54671  87.9169 292.5080 0001739  87.7471 272.3862 13.21770939139404
ONEWEB-0608             
1 54672U 22166AG  25289.91997184  .00000041  00000+0  68989-4 0  9993
2 54672  87.9171 292.4904 0001667  75.1289 285.0029 13.21744640139417
ONEWEB-0610             
1 54673U 22166AH  25289.90053615  .00001175  00000+0  28142-2 0  9999
2 54673  87.9168 292.5318 0001589  72.2014 287.9294 13.21812228139313
ONEWEB-0611             
1 54674U 22166AJ  25289.43990885  .00000067  00000+0  13087-3 0  9999
2 54674  87.9166 292.6194 0001964  96.5364 263.5994 13.21845202139246
ONEWEB-0612             
1 54675U 22166AK  25289.90702292 -.00000109  00000+0 -29608-3 0  9990
2 54675  87.9170 292.5043 0001731  86.2133 273.9199 13.21793952139297
ONEWEB-0615             
1 54676U 22166AL  25289.88760293  .00000083  00000+0  16948-3 0  9995
2 54676  87.9171 292.5348 0001881  90.5470 269.5880 13.21869046139303
ONEWEB-0655             
1 54677U 22166AM  25289.93782233  .00000249  00000+0  57253-3 0  9998
2 54677  87.9167 292.5303 0001571  92.1107 268.0207 13.21680208139309
ONEWEB-0659             
1 54678U 22166AN  25289.95458670 -.00000114  00000+0 -30908-3 0  9997
2 54678  87.9167 292.5269 0001985  90.1783 269.9579 13.21758249139390
